[{"OBJECT_NAME":"STARLINK-35164","OBJECT_ID":"2025-198AD","EPOCH":"2026-03-09T19:46:37.482816","MEAN_MOTION":15.30200823,"ECCENTRICITY":9.077e-5,"INCLINATION":53.159,"RA_OF_ASC_NODE":270.1554,"ARG_OF_PERICENTER":70.4771,"MEAN_ANOMALY":289.6327,"EPHEMERIS_TYPE":0,"CLASSIFICATION_TYPE":"U","NORAD_CAT_ID":65519,"ELEMENT_SET_NO":999,"REV_AT_EPOCH":2864,"BSTAR":0.00059540059,"MEAN_MOTION_DOT":0.00017317,"MEAN_MOTION_DDOT":0},{"OBJECT_NAME":"OBJECT L","OBJECT_ID":"2024-024L","EPOCH":"2026-03-09T22:36:05.522976","MEAN_MOTION":15.29373491,"ECCENTRICITY":0.00073185,"INCLINATION":97.3169,"RA_OF_ASC_NODE":137.7038,"ARG_OF_PERICENTER":167.6369,"MEAN_ANOMALY":192.5052,"EPHEMERIS_TYPE":0,"CLASSIFICATION_TYPE":"U","NORAD_CAT_ID":58927,"ELEMENT_SET_NO":999,"REV_AT_EPOCH":9318,"BSTAR":0.00043092344,"MEAN_MOTION_DOT":0.00012217,"MEAN_MOTION_DDOT":0}]
